{"type":"FeatureCollection","features":[{"type":"Feature","properties":{"name":"Kyiv-Lviv","osm_id":1000000},"geometry":{"type":"LineString","coordinates":[[30.52,50.45],[29.25,50.25],[28.66,50.08],[28.2,49.85],[27,49.42],[26.58,49.56],[25.59,49.54],[24.03,49.84]]}},{"type":"Feature","properties":{"name":"Kyiv-Kharkiv","osm_id":1000001},"geometry":{"type":"LineString","coordinates":[[30.52,50.45],[31.5,50.6],[32.5,50.6],[33.6,50.2],[34.5,49.58],[36.22,49.99]]}},{"type":"Feature","properties":{"name":"Kyiv-Odesa","osm_id":1000002},"geometry":{"type":"LineString","coordinates":[[30.52,50.45],[30.15,49.8],[30.22,48.74],[31,47.9],[31.5,47.25],[30.74,46.49]]}},{"type":"Feature","properties":{"name":"Kyiv-Dnipro","osm_id":1000003},"geometry":{"type":"LineString","coordinates":[[30.52,50.45],[31.5,50.6],[32.5,50.6],[33.6,50.2],[34.5,49.58],[35.04,48.46]]}},{"type":"Feature","properties":{"name":"Lviv-Uzhhorod","osm_id":1000004},"geometry":{"type":"LineString","coordinates":[[24.03,49.84],[23.5,49.5],[23.1,49.1],[22.82,48.62]]}},{"type":"Feature","properties":{"name":"Kyiv-Chernihiv","osm_id":1000005},"geometry":{"type":"LineString","coordinates":[[30.52,50.45],[30.9,51],[31.3,51.5]]}},{"type":"Feature","properties":{"name":"Kharkiv-Zaporizhzhia","osm_id":1000006},"geometry":{"type":"LineString","coordinates":[[36.22,49.99],[35.8,49.2],[35.4,48.65],[35.18,47.83]]}},{"type":"Feature","properties":{"name":"Dnipro-Zaporizhzhia","osm_id":1000007},"geometry":{"type":"LineString","coordinates":[[35.04,48.46],[35.1,48.1],[35.18,47.83]]}},{"type":"Feature","properties":{"name":"Odesa-Kherson","osm_id":1000008},"geometry":{"type":"LineString","coordinates":[[30.74,46.49],[31.9,46.97],[32.62,46.65]]}},{"type":"Feature","properties":{"name":"Lviv-Chernivtsi","osm_id":1000009},"geometry":{"type":"LineString","coordinates":[[24.03,49.84],[24.7,49.5],[24.71,48.92],[25.94,48.29]]}},{"type":"Feature","properties":{"name":"Lviv-Zhytomyr","osm_id":1000010},"geometry":{"type":"LineString","coordinates":[[24.03,49.84],[25.2,50.4],[26.25,51],[26.58,50.26],[28.66,50.08]]}},{"type":"Feature","properties":{"name":"Kharkiv-Donetsk","osm_id":1000011},"geometry":{"type":"LineString","coordinates":[[36.22,49.99],[37,49],[37.8,48],[37.8,48]]}},{"type":"Feature","properties":{"name":"Dnipro-Pokrovsk","osm_id":1000012},"geometry":{"type":"LineString","coordinates":[[35.04,48.46],[36,48.3],[37.17,48.28]]}},{"type":"Feature","properties":{"name":"Mykolaiv-Kryvyi Rih","osm_id":1000013},"geometry":{"type":"LineString","coordinates":[[31.9,46.97],[32.5,47.7],[33.37,47.9]]}},{"type":"Feature","properties":{"name":"Zaporizhzhia-Kryvyi Rih","osm_id":1000014},"geometry":{"type":"LineString","coordinates":[[35.18,47.83],[34.5,48.1],[33.37,47.9]]}},{"type":"Feature","properties":{"name":"Chernihiv-Sumy","osm_id":1000015},"geometry":{"type":"LineString","coordinates":[[31.3,51.5],[32.6,51],[34.8,50.9]]}},{"type":"Feature","properties":{"name":"Poltava-Sumy","osm_id":1000016},"geometry":{"type":"LineString","coordinates":[[34.55,49.6],[34.8,50],[34.8,50.9]]}},{"type":"Feature","properties":{"name":"Vinnytsia-Uman","osm_id":1000017},"geometry":{"type":"LineString","coordinates":[[28.48,49.23],[29.2,48.75],[30.22,48.74]]}},{"type":"Feature","properties":{"name":"Ternopil-Khmelnytskyi","osm_id":1000018},"geometry":{"type":"LineString","coordinates":[[25.59,49.54],[26.58,49.56],[27,49.42]]}},{"type":"Feature","properties":{"name":"Kherson-Melitopol","osm_id":1000019},"geometry":{"type":"LineString","coordinates":[[32.62,46.65],[33.5,46.8],[35.37,46.85]]}}]}